[{"OBJECT_NAME":"DONGPO 10","OBJECT_ID":"2022-167H","EPOCH":"2026-03-09T22:44:56.137344","MEAN_MOTION":15.322785,"ECCENTRICITY":0.00061655,"INCLINATION":97.685,"RA_OF_ASC_NODE":235.0962,"ARG_OF_PERICENTER":106.9526,"MEAN_ANOMALY":253.2392,"EPHEMERIS_TYPE":0,"CLASSIFICATION_TYPE":"U","NORAD_CAT_ID":54689,"ELEMENT_SET_NO":999,"REV_AT_EPOCH":18015,"BSTAR":0.00049390523,"MEAN_MOTION_DOT":0.00015333,"MEAN_MOTION_DDOT":0},{"OBJECT_NAME":"STARLINK-32561","OBJECT_ID":"2024-213U","EPOCH":"2026-03-09T13:08:46.977216","MEAN_MOTION":15.30190093,"ECCENTRICITY":9.245e-5,"INCLINATION":53.159,"RA_OF_ASC_NODE":168.7454,"ARG_OF_PERICENTER":85.2752,"MEAN_ANOMALY":274.8354,"EPHEMERIS_TYPE":0,"CLASSIFICATION_TYPE":"U","NORAD_CAT_ID":62026,"ELEMENT_SET_NO":999,"REV_AT_EPOCH":7313,"BSTAR":0.00096316878,"MEAN_MOTION_DOT":0.00028267,"MEAN_MOTION_DDOT":0}]
